COMMENT,ORIGINATOR,NORAD_CAT_ID,OBJECT_NAME,OBJECT_TYPE,CLASSIFICATION_TYPE,INTLDES,EPOCH,EPOCH_MICROSECONDS,MEAN_MOTION,ECCENTRICITY,INCLINATION,RA_OF_ASC_NODE,ARG_OF_PERICENTER,MEAN_ANOMALY,EPHEMERIS_TYPE,ELEMENT_SET_NO,REV_AT_EPOCH,BSTAR,MEAN_MOTION_DOT,MEAN_MOTION_DDOT,FILE,TLE_LINE0,TLE_LINE1,TLE_LINE2,OBJECT_ID,OBJECT_NUMBER,SEMIMAJOR_AXIS,PERIOD,APOGEE,PERIGEE,DECAYED
"GENERATED VIA SPACETRACK.ORG API","18 SPCS","48888","SPACEBEE-103","PAYLOAD","U","21059K","2023-08-06 09:17:30","45120","15.35527436","0.0005731","97.6007","356.8134","100.6425","259.5464","0","999","11709","0.0010759","0.0003722","0","3973157","0 SPACEBEE-103","1 48888U 21059K   23218.38715330  .00037220  00000-0  10759-2 0  9997","2 48888  97.6007 356.8134 0005731 100.6425 259.5464 15.35527436117095","2021-059K","48888","6837.491","93.779","463.275","455.438","0"
"GENERATED VIA SPACETRACK.ORG API","18 SPCS","48888","SPACEBEE-103","PAYLOAD","U","21059K","2023-08-08 08:12:32","544576","15.35687401","0.0005559","97.6002","358.83","92.8521","267.3359","0","999","11739","0.0013979","0.00048703","0","3974991","0 SPACEBEE-103","1 48888U 21059K   23220.34204334  .00048703  00000-0  13979-2 0  9998","2 48888  97.6002 358.8300 0005559  92.8521 267.3359 15.35687401117396","2021-059K","48888","6837.016","93.769","462.682","455.081","0"
"GENERATED VIA SPACETRACK.ORG API","18 SPCS","48888","SPACEBEE-103","PAYLOAD","U","21059K","2023-08-09 07:39:57","191616","15.3576267","0.0005548","97.6","359.8382","89.4234","270.7645","0","999","11754","0.0011478","0.00040025","0","3975907","0 SPACEBEE-103","1 48888U 21059K   23221.31941194  .00040025  00000-0  11478-2 0  9999","2 48888  97.6000 359.8382 0005548  89.4234 270.7645 15.35762670117541","2021-059K","48888","6836.793","93.764","462.451","454.865","0"
"GENERATED VIA SPACETRACK.ORG API","18 SPCS","48888","SPACEBEE-103","PAYLOAD","U","21059K","2023-08-10 08:41:06","718848","15.3584587","0.0005531","97.5997","0.9132","86.9498","273.2377","0","999","11770","0.0011657","0.00040763","0","3976853","0 SPACEBEE-103","1 48888U 21059K   23222.36188332  .00040763  00000-0  11657-2 0  9990","2 48888  97.5997   0.9132 0005531  86.9498 273.2377 15.35845870117700","2021-059K","48888","6836.546","93.759","462.192","454.630","0"
"GENERATED VIA SPACETRACK.ORG API","18 SPCS","48888","SPACEBEE-103","PAYLOAD","U","21059K","2023-08-12 01:20:19","466304","15.35976994","0.0005402","97.5999","2.6612","79.9747","280.2105","0","999","11796","0.001097","0.00038504","0","3978322","0 SPACEBEE-103","1 48888U 21059K   23224.05578086  .00038504  00000-0  10970-2 0  9994","2 48888  97.5999   2.6612 0005402  79.9747 280.2105 15.35976994117967","2021-059K","48888","6836.157","93.751","461.715","454.329","0"
"GENERATED VIA SPACETRACK.ORG API","18 SPCS","48888","SPACEBEE-103","PAYLOAD","U","21059K","2023-08-13 08:36:29","865600","15.36079318","0.0005323","97.6001","4.0057","74.8756","285.3075","0","999","11816","0.0010898","0.00038375","0","3979352","0 SPACEBEE-103","1 48888U 21059K   23225.35867900  .00038375  00000-0  10898-2 0  9999","2 48888  97.6001   4.0057 0005323  74.8756 285.3075 15.36079318118167","2021-059K","48888","6835.854","93.745","461.357","454.080","0"
"GENERATED VIA SPACETRACK.ORG API","18 SPCS","48888","SPACEBEE-103","PAYLOAD","U","21059K","2023-08-15 09:04:19","865280","15.36230644","0.0005245","97.6008","6.0902","67.1294","293.0502","0","999","11847","0.0011086","0.00039232","0","3980947","0 SPACEBEE-103","1 48888U 21059K   23227.37800770  .00039232  00000-0  11086-2 0  9998","2 48888  97.6008   6.0902 0005245  67.1294 293.0502 15.36230644118476","2021-059K","48888","6835.405","93.736","460.855","453.684","0"
"GENERATED VIA SPACETRACK.ORG API","18 SPCS","48888","SPACEBEE-103","PAYLOAD","U","21059K","2023-08-16 16:20:11","813856","15.36333965","0.0005136","97.6013","7.4351","61.7389","298.4372","0","999","11867","0.0011774","0.00041824","0","3982128","0 SPACEBEE-103","1 48888U 21059K   23228.68069229  .00041824  00000-0  11774-2 0  9993","2 48888  97.6013   7.4351 0005136  61.7389 298.4372 15.36333965118675","2021-059K","48888","6835.098","93.730","460.474","453.453","0"
"GENERATED VIA SPACETRACK.ORG API","18 SPCS","48888","SPACEBEE-103","PAYLOAD","U","21059K","2023-08-18 02:43:29","364384","15.36461249","0.0005086","97.602","8.915","55.8783","304.2942","0","999","11889","0.0011638","0.00041507","0","3983281","0 SPACEBEE-103","1 48888U 21059K   23230.11353431  .00041507  00000-0  11638-2 0  9992","2 48888  97.6020   8.9150 0005086  55.8783 304.2942 15.36461249118892","2021-059K","48888","6834.721","93.722","460.062","453.109","0"
"GENERATED VIA SPACETRACK.ORG API","18 SPCS","48888","SPACEBEE-103","PAYLOAD","U","21059K","2023-08-18 23:02:37","606272","15.3654102","0.0005038","97.6018","9.7898","52.9015","307.2688","0","999","11902","0.0012447","0.00044529","0","3984253","0 SPACEBEE-103","1 48888U 21059K   23230.96015748  .00044529  00000-0  12447-2 0  9997","2 48888  97.6018   9.7898 0005038  52.9015 307.2688 15.36541020119022","2021-059K","48888","6834.484","93.717","459.792","452.906","0"
"GENERATED VIA SPACETRACK.ORG API","18 SPCS","48888","SPACEBEE-103","PAYLOAD","U","21059K","2023-08-19 16:14:09","726144","15.36595269","0.0005018","97.6019","10.5299","50.1602","310.0082","0","999","11913","0.0011247","0.00040276","0","3984752","0 SPACEBEE-103","1 48888U 21059K   23231.67650146  .00040276  00000-0  11247-2 0  9995","2 48888  97.6019  10.5299 0005018  50.1602 310.0082 15.36595269119134","2021-059K","48888","6834.323","93.714","459.618","452.759","0"
"GENERATED VIA SPACETRACK.ORG API","18 SPCS","48888","SPACEBEE-103","PAYLOAD","U","21059K","2023-08-21 04:10:52","511232","15.36722918","0.0004959","97.6022","12.0778","44.146","316.0179","0","999","11936","0.0011741","0.00042231","0","3985980","0 SPACEBEE-103","1 48888U 21059K   23233.17421888  .00042231  00000-0  11741-2 0  9993","2 48888  97.6022  12.0778 0004959  44.1460 316.0179 15.36722918119366","2021-059K","48888","6833.945","93.706","459.199","452.421","0"
"GENERATED VIA SPACETRACK.ORG API","18 SPCS","48888","SPACEBEE-103","PAYLOAD","U","21059K","2023-08-22 08:18:36","951264","15.36818397","0.0004876","97.602","13.2892","38.7625","321.3968","0","999","11954","0.0011058","0.00039879","0","3987099","0 SPACEBEE-103","1 48888U 21059K   23234.34626101  .00039879  00000-0  11058-2 0  9993","2 48888  97.6020  13.2892 0004876  38.7625 321.3968 15.36818397119546","2021-059K","48888","6833.662","93.700","458.859","452.195","0"
"GENERATED VIA SPACETRACK.ORG API","18 SPCS","48888","SPACEBEE-103","PAYLOAD","U","21059K","2023-08-24 16:33:47","118816","15.37004872","0.0004922","97.6019","15.7119","27.9356","332.2151","0","999","11990","0.0010885","0.00039488","0","3988199","0 SPACEBEE-103","1 48888U 21059K   23236.69012869  .00039488  00000-0  10885-2 0  9996","2 48888  97.6019  15.7119 0004922  27.9356 332.2151 15.37004872119907","2021-059K","48888","6833.109","93.689","458.337","451.611","0"
"GENERATED VIA SPACETRACK.ORG API","18 SPCS","48888","SPACEBEE-103","PAYLOAD","U","21059K","2023-08-25 01:56:16","412064","15.37038956","0.00049","97.6018","16.1157","26.1958","333.9532","0","999","11996","0.0011697","0.00042504","0","3988409","0 SPACEBEE-103","1 48888U 21059K   23237.08074551  .00042504  00000-0  11697-2 0  9991","2 48888  97.6018  16.1157 0004900  26.1958 333.9532 15.37038956119965","2021-059K","48888","6833.008","93.687","458.221","451.525","0"
"GENERATED VIA SPACETRACK.ORG API","18 SPCS","48888","SPACEBEE-103","PAYLOAD","U","21059K","2023-08-25 08:11:15","562176","15.3706009","0.0004897","97.6018","16.3849","24.8622","335.2857","0","999","12000","0.001144","0.00041591","0","3988765","0 SPACEBEE-103","1 48888U 21059K   23237.34115234  .00041591  00000-0  11440-2 0  9995","2 48888  97.6018  16.3849 0004897  24.8622 335.2857 15.37060090120009","2021-059K","48888","6832.945","93.685","458.156","451.464","0"
"GENERATED VIA SPACETRACK.ORG API","18 SPCS","48888","SPACEBEE-103","PAYLOAD","U","21059K","2023-08-25 20:41:12","932736","15.37102799","0.0004866","97.6018","16.9233","23.0027","337.1434","0","999","12008","0.00113","0.00041135","0","3989051","0 SPACEBEE-103","1 48888U 21059K   23237.86195524  .00041135  00000-0  11300-2 0  9991","2 48888  97.6018  16.9233 0004866  23.0027 337.1434 15.37102799120081","2021-059K","48888","6832.819","93.683","458.009","451.359","0"
"GENERATED VIA SPACETRACK.ORG API","18 SPCS","48888","SPACEBEE-103","PAYLOAD","U","21059K","2023-08-26 09:11:09","85920","15.37143776","0.0004869","97.6017","17.4617","21.7184","338.4265","0","999","12016","0.001106","0.00040309","0","3989552","0 SPACEBEE-103","1 48888U 21059K   23238.38274405  .00040309  00000-0  11060-2 0  9990","2 48888  97.6017  17.4617 0004869  21.7184 338.4265 15.37143776120169","2021-059K","48888","6832.697","93.680","457.889","451.235","0"
"GENERATED VIA SPACETRACK.ORG API","18 SPCS","48888","SPACEBEE-103","PAYLOAD","U","21059K","2023-08-26 09:11:09","85920","15.37143776","0.0004869","97.6017","17.4617","21.7184","338.4265","0","999","12016","0.001106","0.00040309","0","3989608","0 SPACEBEE-103","1 48888U 21059K   23238.38274405  .00040309  00000-0  11060-2 0  9990","2 48888  97.6017  17.4617 0004869  21.7184 338.4265 15.37143776120169","2021-059K","48888","6832.697","93.680","457.889","451.235","0"
"GENERATED VIA SPACETRACK.ORG API","18 SPCS","48888","SPACEBEE-103","PAYLOAD","U","21059K","2023-08-27 08:37:13","387872","15.37227927","0.0004817","97.6016","18.4713","17.9687","342.1726","0","999","12031","0.0011979","0.00043803","0","3990390","0 SPACEBEE-103","1 48888U 21059K   23239.35918273  .00043803  00000-0  11979-2 0  9997","2 48888  97.6016  18.4713 0004817  17.9687 342.1726 15.37227927120316","2021-059K","48888","6832.448","93.675","457.604","451.022","0"
